     2.10           G: GLONASS NAV DATA                     RINEX VERSION / TYPE
teqc  2015Jun23                         20220408 01:25:39UTCPGM / RUN BY / DATE
Linux 2.4.21-27.ELsmp|Opteron|gcc -static|Linux x86_64|=+   COMMENT
  2022     3    15   -9.313225746155D-10                    CORR TO SYSTEM TIME
                                                            END OF HEADER
 9 22  3 16  7 45  0.0 4.460848867893D-05 1.818989403546D-12 2.700000000000D+04
   -1.401835107422D+04-6.674499511719D-01 2.793967723846D-09 0.000000000000D+00
    1.982588867188D+04 8.227920532227D-01-0.000000000000D+00-2.000000000000D+00
    7.710966308594D+03-3.340800285339D+00-9.313225746155D-10 0.000000000000D+00
 7 22  3 16  7 45  0.0 3.270339220762D-05-0.000000000000D+00 2.700000000000D+04
    1.243691406250D+04-2.409669876099D+00 2.793967723846D-09 0.000000000000D+00
    1.249333203125D+04-7.688589096069D-01 3.725290298462D-09 5.000000000000D+00
   -1.837327441406D+04-2.153087615967D+00 0.000000000000D+00 0.000000000000D+00
 6 22  3 16  7 45  0.0-3.788433969021D-05-1.818989403546D-12 2.700000000000D+04
   -5.563535644531D+03-3.035481452942D+00 1.862645149231D-09 0.000000000000D+00
    9.931807617188D+03-7.383804321289D-01 9.313225746155D-10-4.000000000000D+00
   -2.283331152344D+04 4.165172576904D-01 1.862645149231D-09 0.000000000000D+00
10 22  3 16  7 45  0.0-8.065905421972D-05-0.000000000000D+00 2.700000000000D+04
   -1.965756835938D+03-1.867815017700D+00 1.862645149231D-09 0.000000000000D+00
    1.568862158203D+04 2.009675025940D+00 0.000000000000D+00-7.000000000000D+00
    2.002830371094D+04-1.749226570129D+00-2.793967723846D-09 0.000000000000D+00
20 22  3 16  7 45  0.0-6.681773811579D-05-0.000000000000D+00 2.700000000000D+04
   -2.872834960938D+03-2.785711288452D-01 1.862645149231D-09 0.000000000000D+00
    1.977085449219D+04-2.163295745850D+00 0.000000000000D+00 2.000000000000D+00
    1.583755859375D+04 2.655799865723D+00-1.862645149231D-09 0.000000000000D+00
21 22  3 16  7 45  0.0-2.856831997633D-04-2.728484105319D-12 2.700000000000D+04
    7.401148925781D+03 3.288116455078D-01 3.725290298462D-09 0.000000000000D+00
    2.424736718750D+04 3.290967941284D-01 2.793967723846D-09 4.000000000000D+00
   -2.909462890625D+03 3.576117515564D+00-9.313225746155D-10 0.000000000000D+00
22 22  3 16  7 45  0.0-1.708930358291D-04-1.818989403546D-12 2.721000000000D+04
    1.150365332031D+04 7.176551818848D-01 2.793967723846D-09 0.000000000000D+00
    1.456931933594D+04 2.291257858276D+00 3.725290298462D-09-3.000000000000D+00
   -1.745294091797D+04 2.396770477295D+00 0.000000000000D+00 0.000000000000D+00
 9 22  3 16  8 15  0.0 4.461128264666D-05 1.818989403546D-12 2.880000000000D+04
   -1.463270654297D+04-3.799438476562D-02 2.793967723846D-09 0.000000000000D+00
    2.079613281250D+04 2.220478057861D-01-9.313225746155D-10-2.000000000000D+00
    1.476221679688D+03-3.541541099548D+00-0.000000000000D+00 0.000000000000D+00
21 22  3 16  8 15  0.0-2.856887876987D-04-2.728484105319D-12 2.880000000000D+04
    7.771833984375D+03 4.279613494873D-02 3.725290298462D-09 0.000000000000D+00
    2.404442138672D+04-5.408945083618D-01 1.862645149231D-09 4.000000000000D+00
    3.556828613281D+03 3.562044143677D+00-9.313225746155D-10 0.000000000000D+00
10 22  3 16  8 15  0.0-8.065905421972D-05-0.000000000000D+00 2.880000000000D+04
   -4.770906250000D+03-1.241097450256D+00 1.862645149231D-09 0.000000000000D+00
    1.918877294922D+04 1.832398414612D+00-0.000000000000D+00-7.000000000000D+00
    1.614726708984D+04-2.534926414490D+00-1.862645149231D-09 0.000000000000D+00
20 22  3 16  8 15  0.0-6.681866943836D-05-0.000000000000D+00 2.880000000000D+04
   -3.832344726562D+03-8.021621704102D-01 9.313225746155D-10 0.000000000000D+00
    1.542418261719D+04-2.618770599365D+00-0.000000000000D+00 2.000000000000D+00
    1.994311035156D+04 1.876389503479D+00-1.862645149231D-09 0.000000000000D+00
22 22  3 16  8 15  0.0-1.708976924419D-04-2.728484105319D-12 2.880000000000D+04
    1.291567968750D+04 8.097305297852D-01 3.725290298462D-09 0.000000000000D+00
    1.802983691406D+04 1.529979705811D+00 2.793967723846D-09-3.000000000000D+00
   -1.251741308594D+04 3.051563262939D+00-0.000000000000D+00 0.000000000000D+00
 6 22  3 16  8 15  0.0-3.788806498051D-05-1.818989403546D-12 2.883000000000D+04
   -1.094175878906D+04-2.889598846436D+00 1.862645149231D-09 0.000000000000D+00
    9.025249023438D+03-2.702026367188D-01-0.000000000000D+00-4.000000000000D+00
   -2.121140820312D+04 1.373862266541D+00 1.862645149231D-09 0.000000000000D+00
 9 22  3 16  8 45  0.0 4.461314529181D-05 1.818989403546D-12 3.060000000000D+04
   -1.426184716797D+04 4.147396087646D-01 1.862645149231D-09 0.000000000000D+00
    2.053057617188D+04-5.355205535889D-01-1.862645149231D-09-2.000000000000D+00
   -4.873137207031D+03-3.467271804810D+00 0.000000000000D+00 0.000000000000D+00
21 22  3 16  8 45  0.0-2.856934443116D-04-2.728484105319D-12 3.060000000000D+04
    7.425839355469D+03-4.574851989746D-01 2.793967723846D-09 0.000000000000D+00
    2.238256347656D+04-1.274329185486D+00 9.313225746155D-10 4.000000000000D+00
    9.748389648438D+03 3.272840499878D+00-1.862645149231D-09 0.000000000000D+00
10 22  3 16  8 45  0.0-8.065905421972D-05 0.000000000000D+00 3.060000000000D+04
   -6.438768066406D+03-6.226005554199D-01 1.862645149231D-09 0.000000000000D+00
    2.211981591797D+04 1.380908966064D+00-9.313225746155D-10-7.000000000000D+00
    1.102065771484D+04-3.124325752258D+00-9.313225746155D-10 0.000000000000D+00
20 22  3 16  8 45  0.0-6.682053208351D-05-0.000000000000D+00 3.060000000000D+04
   -5.779932617188D+03-1.357644081116D+00-0.000000000000D+00 0.000000000000D+00
    1.052542285156D+04-2.772281646729D+00-9.313225746155D-10 2.000000000000D+00
    2.250571484375D+04 9.526033401489D-01-1.862645149231D-09 0.000000000000D+00
22 22  3 16  8 45  0.0-1.709032803774D-04-2.728484105319D-12 3.060000000000D+04
    1.426037744141D+04 6.395463943481D-01 4.656612873077D-09 0.000000000000D+00
    2.002658886719D+04 6.846380233765D-01 2.793967723846D-09-3.000000000000D+00
   -6.609485351562D+03 3.470021247864D+00-0.000000000000D+00 0.000000000000D+00
 6 22  3 16  8 45  0.0-3.789179027081D-05-1.818989403546D-12 3.063000000000D+04
   -1.579092529297D+04-2.453269958496D+00 9.313225746155D-10 0.000000000000D+00
    8.922575195312D+03 1.375560760498D-01-1.862645149231D-09-4.000000000000D+00
   -1.795135546875D+04 2.224903106689D+00 1.862645149231D-09 0.000000000000D+00
 7 22  3 16  8 45  0.0 3.270339220762D-05-0.000000000000D+00 3.102000000000D+04
    2.098658691406D+03-3.151200294495D+00 2.793967723846D-09 0.000000000000D+00
    1.088951513672D+04-3.803253173828D-02 9.313225746155D-10 5.000000000000D+00
   -2.292614013672D+04-3.102216720581D-01 1.862645149231D-09 0.000000000000D+00
 7 22  3 16  9 15  0.0 3.270339220762D-05 0.000000000000D+00 3.240000000000D+04
   -3.552585937500D+03-3.076179504395D+00 1.862645149231D-09 0.000000000000D+00
    1.123274072266D+04 4.142313003540D-01-0.000000000000D+00 5.000000000000D+00
   -2.258720507812D+04 6.842164993286D-01 1.862645149231D-09 0.000000000000D+00
 9 22  3 16  9 15  0.0 4.461593925953D-05 1.818989403546D-12 3.240000000000D+04
   -1.328013818359D+04 6.347627639771D-01 1.862645149231D-09 0.000000000000D+00
    1.883427246094D+04-1.349305152893D+00-1.862645149231D-09-2.000000000000D+00
   -1.084391357422D+04-3.123647689819D+00 9.313225746155D-10 0.000000000000D+00
10 22  3 16  9 15  0.0-8.066650480032D-05 0.000000000000D+00 3.240000000000D+04
   -7.080165527344D+03-1.164665222168D-01 1.862645149231D-09 0.000000000000D+00
    2.402068994141D+04 6.984558105469D-01-1.862645149231D-09-7.000000000000D+00
    5.044776855469D+03-3.472546577454D+00-0.000000000000D+00 0.000000000000D+00
21 22  3 16  9 15  0.0-2.856990322471D-04-2.728484105319D-12 3.240000000000D+04
    6.042745605469D+03-1.093745231628D+00 2.793967723846D-09 0.000000000000D+00
    1.959390576172D+04-1.780607223511D+00-0.000000000000D+00 4.000000000000D+00
    1.518697460938D+04 2.730825424194D+00-1.862645149231D-09 0.000000000000D+00
22 22  3 16  9 15  0.0-1.709088683128D-04-2.728484105319D-12 3.240000000000D+04
    1.506227490234D+04 2.113294601440D-01 4.656612873077D-09 0.000000000000D+00
    2.051655664062D+04-1.243085861206D-01 9.313225746155D-10-3.000000000000D+00
   -1.875400390625D+02 3.618856430054D+00-9.313225746155D-10 0.000000000000D+00
 6 22  3 16  9 15  0.0-3.789458423853D-05-1.818989403546D-12 3.243000000000D+04
   -1.963142333984D+04-1.781295776367D+00-0.000000000000D+00 0.000000000000D+00
    9.427109375000D+03 3.907155990601D-01-2.793967723846D-09-4.000000000000D+00
   -1.330515478516D+04 2.904059410095D+00 1.862645149231D-09 0.000000000000D+00
21 22  3 16  9 45  0.0-2.857036888599D-04-2.728484105319D-12 3.420000000000D+04
    3.469830566406D+03-1.760550498962D+00 9.313225746155D-10 0.000000000000D+00
    1.614116943359D+04-2.007130622864D+00-9.313225746155D-10 4.000000000000D+00
    1.945242675781D+04 1.977802276611D+00-1.862645149231D-09 0.000000000000D+00
 7 22  3 16  9 45  0.0 3.270339220762D-05 0.000000000000D+00 3.420000000000D+04
   -8.797338378906D+03-2.705592155457D+00 9.313225746155D-10 0.000000000000D+00
    1.233030908203D+04 7.829236984253D-01-9.313225746155D-10 5.000000000000D+00
   -2.049548486328D+04 1.624602317810D+00 1.862645149231D-09 0.000000000000D+00
 6 22  3 16  9 45  0.0-3.789830952883D-05-1.818989403546D-12 3.420000000000D+04
   -2.211583642578D+04-9.637737274170D-01-1.862645149231D-09 0.000000000000D+00
    1.019617138672D+04 4.235973358154D-01-2.793967723846D-09-4.000000000000D+00
   -7.631631835938D+03 3.358980178833D+00 1.862645149231D-09 0.000000000000D+00
 9 22  3 16  9 45  0.0 4.461873322725D-05 1.818989403546D-12 3.420000000000D+04
   -1.212535595703D+04 6.085329055786D-01 9.313225746155D-10 0.000000000000D+00
    1.570737451172D+04-2.106131553650D+00-1.862645149231D-09-2.000000000000D+00
   -1.597240722656D+04-2.537564277649D+00 1.862645149231D-09 0.000000000000D+00
